[{"OBJECT_NAME":"JILIN-1 GAOFEN 3A","OBJECT_ID":"2019-032C","EPOCH":"2026-03-09T17:53:24.364896","MEAN_MOTION":15.3027131,"ECCENTRICITY":0.00026181,"INCLINATION":44.9746,"RA_OF_ASC_NODE":183.2861,"ARG_OF_PERICENTER":111.29,"MEAN_ANOMALY":248.8263,"EPHEMERIS_TYPE":0,"CLASSIFICATION_TYPE":"U","NORAD_CAT_ID":44312,"ELEMENT_SET_NO":999,"REV_AT_EPOCH":37259,"BSTAR":0.00055381133,"MEAN_MOTION_DOT":0.00016264,"MEAN_MOTION_DDOT":0},{"OBJECT_NAME":"STARLINK-35409","OBJECT_ID":"2025-243V","EPOCH":"2026-03-09T18:03:23.878080","MEAN_MOTION":15.30196191,"ECCENTRICITY":9.943e-5,"INCLINATION":53.1592,"RA_OF_ASC_NODE":244.9387,"ARG_OF_PERICENTER":134.1816,"MEAN_ANOMALY":225.9266,"EPHEMERIS_TYPE":0,"CLASSIFICATION_TYPE":"U","NORAD_CAT_ID":66196,"ELEMENT_SET_NO":999,"REV_AT_EPOCH":2066,"BSTAR":0.00046771686,"MEAN_MOTION_DOT":0.00013517,"MEAN_MOTION_DDOT":0}]
